[{"OBJECT_NAME":"ONEWEB-0298","OBJECT_ID":"2021-075N","EPOCH":"2026-03-09T20:49:20.209728","MEAN_MOTION":13.17649039,"ECCENTRICITY":0.00016838,"INCLINATION":87.9151,"RA_OF_ASC_NODE":25.59,"ARG_OF_PERICENTER":79.4707,"MEAN_ANOMALY":280.6614,"EPHEMERIS_TYPE":0,"CLASSIFICATION_TYPE":"U","NORAD_CAT_ID":49087,"ELEMENT_SET_NO":999,"REV_AT_EPOCH":22054,"BSTAR":-0.00038805506,"MEAN_MOTION_DOT":-1.38e-6,"MEAN_MOTION_DDOT":0},{"OBJECT_NAME":"DELTA 1 DEB","OBJECT_ID":"1975-052KS","EPOCH":"2026-03-09T08:32:35.634336","MEAN_MOTION":12.94566689,"ECCENTRICITY":0.03073766,"INCLINATION":99.2437,"RA_OF_ASC_NODE":204.9401,"ARG_OF_PERICENTER":297.5687,"MEAN_ANOMALY":84.6935,"EPHEMERIS_TYPE":0,"CLASSIFICATION_TYPE":"U","NORAD_CAT_ID":26838,"ELEMENT_SET_NO":999,"REV_AT_EPOCH":49920,"BSTAR":0.0021679713,"MEAN_MOTION_DOT":7.12e-6,"MEAN_MOTION_DDOT":0}]
